OBJECT_NAME,OBJECT_ID,EPOCH,MEAN_MOTION,ECCENTRICITY,INCLINATION,RA_OF_ASC_NODE,ARG_OF_PERICENTER,MEAN_ANOMALY,EPHEMERIS_TYPE,CLASSIFICATION_TYPE,NORAD_CAT_ID,ELEMENT_SET_NO,REV_AT_EPOCH,BSTAR,MEAN_MOTION_DOT,MEAN_MOTION_DDOT
KUIPER-00513,2026-140G,2026-07-14T13:12:45.493056,15.38148514,.0007421,51.8801,266.3737,335.0290,25.0338,0,U,69598,999,544,.32246E-3,.11935E-3,0
KUIPER-00516,2026-140H,2026-07-14T13:24:21.947040,15.37583075,.0007069,51.8774,266.4200,352.8275,7.2609,0,U,69599,999,544,.25274E-3,.9091E-4,0
KUIPER-00517,2026-140J,2026-07-14T12:51:16.543296,15.38821702,.0010479,51.8780,266.2703,289.7075,70.2782,0,U,69600,999,544,.44436E-3,.16998E-3,0
KUIPER-00520,2026-140K,2026-07-14T13:25:39.099648,15.37636953,.000685,51.8804,266.4353,353.5232,6.5665,0,U,69601,999,544,.21391E-3,.7645E-4,0
KUIPER-00522,2026-140L,2026-07-14T09:39:27.179424,15.38654927,.00135335,51.8766,266.8758,262.0154,97.9298,0,U,69602,999,542,.58783788E-3,.22536E-3,0
KUIPER-00528,2026-140M,2026-07-14T13:29:25.971360,15.37486448,.0005814,51.8773,266.4415,0.1790,359.9198,0,U,69603,999,544,.21453E-3,.7629E-4,0
KUIPER-00532,2026-140N,2026-07-14T12:11:28.277088,15.36556816,.0005222,51.8782,266.8264,33.7129,326.4188,0,U,69604,999,543,.38579E-3,.13621E-3,0
KUIPER-00533,2026-140P,2026-07-14T13:07:06.575232,15.38270266,.0008033,51.8782,266.3406,324.8783,35.1674,0,U,69605,999,544,.45335E-3,.17024E-3,0
KUIPER-00534,2026-140Q,2026-07-14T09:32:09.358656,15.38718731,.00134156,51.8808,266.8511,262.9424,97.0038,0,U,69606,999,542,.47664954E-3,.18224E-3,0
KUIPER-00537,2026-140R,2026-07-14T12:44:42.339840,15.34145433,.00100959,51.8799,266.9829,53.2474,306.9437,0,U,69607,999,543,.38699636E-3,.12642E-3,0
KUIPER-00538,2026-140S,2026-07-14T13:22:07.967424,15.37720478,.0006672,51.8800,266.4163,340.5884,19.4848,0,U,69608,999,544,.21793E-3,.7818E-4,0
KUIPER-00540,2026-140T,2026-07-14T12:05:12.893280,15.36957918,.00066627,51.8813,266.8078,21.7928,338.3341,0,U,69609,999,543,.26536165E-3,.9367E-4,0
KUIPER-00541,2026-140U,2026-07-14T13:06:39.945024,15.38428649,.0007543,51.8805,266.3511,318.5864,41.4551,0,U,69610,999,544,-.19967E-3,-.8088E-4,0
KUIPER-00542,2026-140V,2026-07-14T13:04:51.996864,15.38284690,.0007885,51.8780,266.3297,300.2753,59.7453,0,U,69611,999,544,.38418E-3,.14367E-3,0
KUIPER-00543,2026-140W,2026-07-14T12:11:42.457056,15.36830922,.00081602,51.8792,266.8269,32.6543,327.4947,0,U,69612,999,543,.31527684E-3,.11162E-3,0
KUIPER-00544,2026-140X,2026-07-14T11:37:41.603520,15.38169430,.00068095,51.8777,266.6750,317.9853,42.0611,0,U,69613,999,543,.39647082E-3,.1478E-3,0
KUIPER-00546,2026-140Y,2026-07-14T17:20:46.425984,15.38166664,.0014337,51.8805,265.2809,257.3045,102.6340,0,U,69614,999,547,-.41837E-2,-.157507E-2,0
KUIPER-00547,2026-140Z,2026-07-14T11:29:07.609056,15.37917453,.00109141,51.8805,266.6446,287.1660,72.8132,0,U,69615,999,543,.43980854E-3,.16324E-3,0
KUIPER-00549,2026-140AA,2026-07-14T11:58:09.640416,15.37328863,.00079245,51.8786,266.7659,13.3648,346.7547,0,U,69616,999,543,.29227046E-3,.10489E-3,0
KUIPER-00550,2026-140AB,2026-07-14T20:00:01.999008,15.32098455,.0007727,51.8784,265.6865,60.2921,88.9739,0,U,69617,999,472,-.77371E-3,-.24649E-3,0
KUIPER-00551,2026-140AC,2026-07-14T11:17:25.257408,15.38356171,.00126112,51.8774,266.5817,266.7974,93.1570,0,U,69618,999,543,.39847903E-3,.14975E-3,0
KUIPER-00554,2026-140AD,2026-07-14T13:00:04.671072,15.37977697,.0011174,51.8787,266.3099,288.8404,71.1371,0,U,69619,999,544,.37084E-3,.13725E-3,0
KUIPER-00555,2026-140AE,2026-07-14T12:56:12.250752,15.37950646,.0011393,51.8822,266.3014,276.7392,83.2298,0,U,69620,999,544,.38444E-3,.14233E-3,0
KUIPER-00556,2026-140AF,2026-07-12T20:22:38.974944,15.37854962,.001062,51.8804,274.4699,249.9236,110.0608,0,U,69621,999,518,-.48964841E-2,-.181525E-2,0
KUIPER-00557,2026-140AG,2026-07-14T11:34:39.392832,15.37521058,.00098691,51.8801,266.6669,297.9736,62.0251,0,U,69622,999,543,.26028495E-3,.9361E-4,0
KUIPER-00560,2026-140AH,2026-07-14T12:55:05.295936,15.35526551,.0009177,51.8772,266.2881,279.0487,80.9460,0,U,69623,999,544,-.75531E-1,-.2361808E-1,0
KUIPER-00561,2026-140AJ,2026-07-14T16:05:17.179008,15.38721602,.0008127,51.8811,265.6836,304.5903,55.4318,0,U,69624,999,546,.31506E-3,.11879E-3,0
KUIPER-00564,2026-140AK,2026-07-14T13:03:44.368128,15.37196641,.0009447,51.8801,266.3339,302.1244,57.8825,0,U,69625,999,544,.40315E-3,.14569E-3,0
KUIPER-00567,2026-140AL,2026-07-14T11:18:23.588640,15.38238816,.00121887,51.8779,266.5872,275.8734,84.0864,0,U,69626,999,543,.3847857E-3,.14387E-3,0
KUIPER-00573,2026-140AM,2026-07-14T11:40:07.564224,15.37467868,.0009325,51.8776,266.6854,283.3972,76.5975,0,U,69627,999,543,.35090691E-3,.1274E-3,0
